start=new Date('2022-03-10T00:00:00.000Z').valueOf();
sats=[{"TLE_LINE2":"2 45777  53.0546 274.5004 0001505  63.8836 296.2308 15.06379807 96586","MEAN_MOTION":"15.06379807","MEAN_MOTION_DOT":"0.00002159","SITE":"AFETR","ELEMENT_SET_NO":"999","FILE":"3352875","RA_OF_ASC_NODE":"274.5004","ECCENTRICITY":"0.00015050","TLE_LINE1":"1 45777U 20038AZ  22068.87045698  .00002159  00000-0  16387-3 0  9993","RCS_SIZE":"LARGE","GP_ID":"198358483","MEAN_ELEMENT_THEORY":"SGP4","CENTER_NAME":"EARTH","OBJECT_ID":"2020-038AZ","CLASSIFICATION_TYPE":"U","ARG_OF_PERICENTER":"63.8836","NORAD_CAT_ID":"45777","REF_FRAME":"TEME","COUNTRY_CODE":"US","EPOCH":"2022-03-09T20:53:27.483072","MEAN_MOTION_DDOT":"0.0000000000000","TIME_SYSTEM":"UTC","BSTAR":"0.00016387000000","REV_AT_EPOCH":"9658","PERIAPSIS":"546.233","OBJECT_TYPE":"PAYLOAD","APOAPSIS":"548.318","LAUNCH_DATE":"2020-06-13","DECAY_DATE":null,"PERIOD":"95.593","OBJECT_NAME":"STARLINK-1490","SEMIMAJOR_AXIS":"6925.410","EPHEMERIS_TYPE":"0","INCLINATION":"53.0546","MEAN_ANOMALY":"296.2308"},{"MEAN_MOTION":"15.06388583","TLE_LINE2":"2 45778  53.0537 274.5724 0001536  76.4295 283.6865 15.06388583 96566","SITE":"AFETR","MEAN_MOTION_DOT":"-0.00001176","FILE":"3352875","RA_OF_ASC_NODE":"274.5724","ECCENTRICITY":"0.00015360","TLE_LINE1":"1 45778U 20038BA  22068.85201450 -.00001176  00000-0 -60115-4 0  9991","ELEMENT_SET_NO":"999","MEAN_ELEMENT_THEORY":"SGP4","GP_ID":"198357231","CENTER_NAME":"EARTH","OBJECT_ID":"2020-038BA","RCS_SIZE":"LARGE","ARG_OF_PERICENTER":"76.4295","NORAD_CAT_ID":"45778","CLASSIFICATION_TYPE":"U","BSTAR":"-0.00006011500000","REV_AT_EPOCH":"9656","PERIAPSIS":"546.185","EPOCH":"2022-03-09T20:26:54.052800","COUNTRY_CODE":"US","REF_FRAME":"TEME","MEAN_MOTION_DDOT":"0.0000000000000","TIME_SYSTEM":"UTC","DECAY_DATE":null,"PERIOD":"95.593","OBJECT_NAME":"STARLINK-1491","APOAPSIS":"548.312","OBJECT_TYPE":"PAYLOAD","LAUNCH_DATE":"2020-06-13","EPHEMERIS_TYPE":"0","INCLINATION":"53.0537","MEAN_ANOMALY":"283.6865","SEMIMAJOR_AXIS":"6925.384"},{"LAUNCH_DATE":"2020-06-13","APOAPSIS":"548.386","OBJECT_TYPE":"PAYLOAD","DECAY_DATE":null,"OBJECT_NAME":"STARLINK-1492","PERIOD":"95.593","SEMIMAJOR_AXIS":"6925.383","EPHEMERIS_TYPE":"0","INCLINATION":"53.0526","MEAN_ANOMALY":"290.5002","CLASSIFICATION_TYPE":"U","NORAD_CAT_ID":"45779","ARG_OF_PERICENTER":"69.6164","MEAN_MOTION_DDOT":"0.0000000000000","TIME_SYSTEM":"UTC","COUNTRY_CODE":"US","EPOCH":"2022-03-09T20:21:36.186336","REF_FRAME":"TEME","PERIAPSIS":"546.110","BSTAR":"-0.00001091200000","REV_AT_EPOCH":"9656","ELEMENT_SET_NO":"999","RA_OF_ASC_NODE":"274.5845","ECCENTRICITY":"0.00016430","TLE_LINE1":"1 45779U 20038BB  22068.84833549 -.00000444  00000-0 -10912-4 0  9998","FILE":"3352875","RCS_SIZE":"LARGE","CENTER_NAME":"EARTH","GP_ID":"198357481","MEAN_ELEMENT_THEORY":"SGP4","OBJECT_ID":"2020-038BB","TLE_LINE2":"2 45779  53.0526 274.5845 0001643  69.6164 290.5002 15.06388784 96560","MEAN_MOTION":"15.06388784","MEAN_MOTION_DOT":"-0.00000444","SITE":"AFETR"},{"FILE":"3352875","TLE_LINE1":"1 45780U 20038BC  22068.85938799  .00001792  00000-0  13921-3 0  9991","ECCENTRICITY":"0.00015550","RA_OF_ASC_NODE":"274.5524","ELEMENT_SET_NO":"999","OBJECT_ID":"2020-038BC","GP_ID":"198358733","CENTER_NAME":"EARTH","MEAN_ELEMENT_THEORY":"SGP4","RCS_SIZE":"LARGE","MEAN_MOTION":"15.06390592","TLE_LINE2":"2 45780  53.0553 274.5524 0001555  84.1776 275.9390 15.06390592 96566","SITE":"AFETR","MEAN_MOTION_DOT":"0.00001792","PERIOD":"95.593","DECAY_DATE":null,"OBJECT_NAME":"STARLINK-1496","APOAPSIS":"548.319","OBJECT_TYPE":"PAYLOAD","LAUNCH_DATE":"2020-06-13","MEAN_ANOMALY":"275.9390","EPHEMERIS_TYPE":"0","INCLINATION":"53.0553","SEMIMAJOR_AXIS":"6925.377","ARG_OF_PERICENTER":"84.1776","NORAD_CAT_ID":"45780","CLASSIFICATION_TYPE":"U","REV_AT_EPOCH":"9656","BSTAR":"0.00013921000000","PERIAPSIS":"546.165","COUNTRY_CODE":"US","EPOCH":"2022-03-09T20:37:31.122336","REF_FRAME":"TEME","TIME_SYSTEM":"UTC","MEAN_MOTION_DDOT":"0.0000000000000"},{"TIME_SYSTEM":"UTC","MEAN_MOTION_DDOT":"0.0000000000000","COUNTRY_CODE":"US","REF_FRAME":"TEME","EPOCH":"2022-03-09T21:14:41.508960","PERIAPSIS":"546.251","REV_AT_EPOCH":"9657","BSTAR":"0.00038997000000","CLASSIFICATION_TYPE":"U","NORAD_CAT_ID":"45781","ARG_OF_PERICENTER":"55.9977","SEMIMAJOR_AXIS":"6925.425","MEAN_ANOMALY":"304.1155","INCLINATION":"53.0530","EPHEMERIS_TYPE":"0","LAUNCH_DATE":"2020-06-13","APOAPSIS":"548.329","OBJECT_TYPE":"PAYLOAD","DECAY_DATE":null,"OBJECT_NAME":"STARLINK-1497","PERIOD":"95.594","MEAN_MOTION_DOT":"0.00005528","SITE":"AFETR","TLE_LINE2":"2 45781  53.0530 274.4314 0001500  55.9977 304.1155 15.06375151 96576","MEAN_MOTION":"15.06375151","RCS_SIZE":"LARGE","OBJECT_ID":"2020-038BD","GP_ID":"198358984","CENTER_NAME":"EARTH","MEAN_ELEMENT_THEORY":"SGP4","ELEMENT_SET_NO":"999","TLE_LINE1":"1 45781U 20038BD  22068.88520265  .00005528  00000-0  38997-3 0  9991","ECCENTRICITY":"0.00015000","RA_OF_ASC_NODE":"274.4314","FILE":"3352875"},{"RCS_SIZE":"LARGE","GP_ID":"198357732","MEAN_ELEMENT_THEORY":"SGP4","CENTER_NAME":"EARTH","OBJECT_ID":"2020-038BE","ELEMENT_SET_NO":"999","RA_OF_ASC_NODE":"274.4656","ECCENTRICITY":"0.00015450","TLE_LINE1":"1 45782U 20038BE  22068.87781926  .00002019  00000-0  15446-3 0  9990","FILE":"3352875","MEAN_MOTION_DOT":"0.00002019","SITE":"AFETR","TLE_LINE2":"2 45782  53.0546 274.4656 0001545  62.3645 297.7501 15.06389307 96587","MEAN_MOTION":"15.06389307","SEMIMAJOR_AXIS":"6925.381","INCLINATION":"53.0546","EPHEMERIS_TYPE":"0","MEAN_ANOMALY":"297.7501","LAUNCH_DATE":"2020-06-13","APOAPSIS":"548.316","OBJECT_TYPE":"PAYLOAD","DECAY_DATE":null,"PERIOD":"95.593","OBJECT_NAME":"STARLINK-1498","MEAN_MOTION_DDOT":"0.0000000000000","TIME_SYSTEM":"UTC","EPOCH":"2022-03-09T21:04:03.584064","COUNTRY_CODE":"US","REF_FRAME":"TEME","PERIAPSIS":"546.176","BSTAR":"0.00015446000000","REV_AT_EPOCH":"9658","CLASSIFICATION_TYPE":"U","NORAD_CAT_ID":"45782","ARG_OF_PERICENTER":"62.3645"},{"NORAD_CAT_ID":"45783","ARG_OF_PERICENTER":"70.9903","CLASSIFICATION_TYPE":"U","PERIAPSIS":"546.188","BSTAR":"0.00023641000000","REV_AT_EPOCH":"9658","MEAN_MOTION_DDOT":"0.0000000000000","TIME_SYSTEM":"UTC","COUNTRY_CODE":"US","EPOCH":"2022-03-09T21:09:21.475584","REF_FRAME":"TEME","DECAY_DATE":null,"OBJECT_NAME":"STARLINK-1505","PERIOD":"95.592","LAUNCH_DATE":"2020-06-13","OBJECT_TYPE":"PAYLOAD","APOAPSIS":"548.259","INCLINATION":"53.0555","EPHEMERIS_TYPE":"0","MEAN_ANOMALY":"289.1248","SEMIMAJOR_AXIS":"6925.358","MEAN_MOTION":"15.06396768","TLE_LINE2":"2 45783  53.0555 274.4379 0001495  70.9903 289.1248 15.06396768 96588","SITE":"AFETR","MEAN_MOTION_DOT":"0.00003241","RA_OF_ASC_NODE":"274.4379","TLE_LINE1":"1 45783U 20038BF  22068.88149856  .00003241  00000-0  23641-3 0  9996","ECCENTRICITY":"0.00014950","FILE":"3352875","ELEMENT_SET_NO":"999","GP_ID":"198357982","MEAN_ELEMENT_THEORY":"SGP4","CENTER_NAME":"EARTH","OBJECT_ID":"2020-038BF","RCS_SIZE":"LARGE"},{"LAUNCH_DATE":"2020-06-13","OBJECT_TYPE":"PAYLOAD","APOAPSIS":"548.465","DECAY_DATE":null,"OBJECT_NAME":"STARLINK-1510","PERIOD":"95.593","SEMIMAJOR_AXIS":"6925.372","INCLINATION":"53.0520","EPHEMERIS_TYPE":"0","MEAN_ANOMALY":"291.9794","CLASSIFICATION_TYPE":"U","NORAD_CAT_ID":"45784","ARG_OF_PERICENTER":"68.1383","MEAN_MOTION_DDOT":"0.0000000000000","TIME_SYSTEM":"UTC","COUNTRY_CODE":"US","REF_FRAME":"TEME","EPOCH":"2022-03-09T20:32:12.352992","PERIAPSIS":"546.010","BSTAR":"0.00006629700000","REV_AT_EPOCH":"9657","ELEMENT_SET_NO":"999","RA_OF_ASC_NODE":"274.5658","TLE_LINE1":"1 45784U 20038BG  22068.85569853  .00000706  00000-0  66297-4 0  9995","ECCENTRICITY":"0.00017730","FILE":"3352875","RCS_SIZE":"LARGE","CENTER_NAME":"EARTH","GP_ID":"198358233","MEAN_ELEMENT_THEORY":"SGP4","OBJECT_ID":"2020-038BG","TLE_LINE2":"2 45784  53.0520 274.5658 0001773  68.1383 291.9794 15.06392218 96574","MEAN_MOTION":"15.06392218","MEAN_MOTION_DOT":"0.00000706","SITE":"AFETR"},{"TLE_LINE2":"2 45785  53.0533 274.6323 0001910  65.7894 294.3295 15.06396016 96575","MEAN_MOTION":"15.06396016","MEAN_MOTION_DOT":"-0.00000105","SITE":"AFETR","ELEMENT_SET_NO":"999","FILE":"3352875","ECCENTRICITY":"0.00019100","TLE_LINE1":"1 45785U 20038BH  22068.83728058 -.00000105  00000-0  11857-4 0  9994","RA_OF_ASC_NODE":"274.6323","RCS_SIZE":"LARGE","OBJECT_ID":"2020-038BH","MEAN_ELEMENT_THEORY":"SGP4","GP_ID":"198358484","CENTER_NAME":"EARTH","CLASSIFICATION_TYPE":"U","ARG_OF_PERICENTER":"65.7894","NORAD_CAT_ID":"45785","COUNTRY_CODE":"US","REF_FRAME":"TEME","EPOCH":"2022-03-09T20:05:41.042112","TIME_SYSTEM":"UTC","MEAN_MOTION_DDOT":"0.0000000000000","REV_AT_EPOCH":"9657","BSTAR":"0.00001185700000","PERIAPSIS":"545.903","OBJECT_TYPE":"PAYLOAD","APOAPSIS":"548.549","LAUNCH_DATE":"2020-06-13","OBJECT_NAME":"STARLINK-1512","DECAY_DATE":null,"PERIOD":"95.592","SEMIMAJOR_AXIS":"6925.361","MEAN_ANOMALY":"294.3295","EPHEMERIS_TYPE":"0","INCLINATION":"53.0533"},{"COUNTRY_CODE":"US","EPOCH":"2022-03-09T21:19:59.458368","REF_FRAME":"TEME","TIME_SYSTEM":"UTC","MEAN_MOTION_DDOT":"0.0000000000000","REV_AT_EPOCH":"9658","BSTAR":"0.00021218000000","PERIAPSIS":"546.100","CLASSIFICATION_TYPE":"U","ARG_OF_PERICENTER":"64.1918","NORAD_CAT_ID":"45786","SEMIMAJOR_AXIS":"6925.379","MEAN_ANOMALY":"295.9241","INCLINATION":"53.0554","EPHEMERIS_TYPE":"0","OBJECT_TYPE":"PAYLOAD","APOAPSIS":"548.387","LAUNCH_DATE":"2020-06-13","OBJECT_NAME":"STARLINK-1513","DECAY_DATE":null,"PERIOD":"95.593","MEAN_MOTION_DOT":"0.00002879","SITE":"AFETR","TLE_LINE2":"2 45786  53.0554 274.4078 0001651  64.1918 295.9241 15.06390143 96580","MEAN_MOTION":"15.06390143","RCS_SIZE":"LARGE","OBJECT_ID":"2020-038BJ","GP_ID":"198357232","MEAN_ELEMENT_THEORY":"SGP4","CENTER_NAME":"EARTH","ELEMENT_SET_NO":"999","FILE":"3352875","TLE_LINE1":"1 45786U 20038BJ  22068.88888262  .00002879  00000-0  21218-3 0  9994","ECCENTRICITY":"0.00016510","RA_OF_ASC_NODE":"274.4078"}];
